CCSDS_OMM_VERS = 2.0
CREATION_DATE  = 
ORIGINATOR     = 

OBJECT_NAME    = ALOS (DAICHI)
OBJECT_ID      = 2006-002A
CENTER_NAME    = EARTH
REF_FRAME      = TEME
TIME_SYSTEM    = UTC
MEAN_ELEMENT_THEORY = SGP/SGP4

EPOCH          = 2025-12-17T17:37:14.152512
MEAN_MOTION    = 14.69501788
ECCENTRICITY   = .00013612
INCLINATION    = 98.1098
RA_OF_ASC_NODE = 303.1864
ARG_OF_PERICENTER = 113.5739
MEAN_ANOMALY   = 246.5610

EPHEMERIS_TYPE = 0
CLASSIFICATION_TYPE = U
NORAD_CAT_ID   = 28931
ELEMENT_SET_NO = 999
REV_AT_EPOCH   = 6144
BSTAR          = .19545051E-3
MEAN_MOTION_DOT = .111E-4
MEAN_MOTION_DDOT = 0

CCSDS_OMM_VERS = 2.0
CREATION_DATE  = 
ORIGINATOR     = 

OBJECT_NAME    = H-2A R/B
OBJECT_ID      = 2006-002B
CENTER_NAME    = EARTH
REF_FRAME      = TEME
TIME_SYSTEM    = UTC
MEAN_ELEMENT_THEORY = SGP/SGP4

EPOCH          = 2026-01-02T15:49:38.302176
MEAN_MOTION    = 15.15059265
ECCENTRICITY   = .0054717
INCLINATION    = 98.2327
RA_OF_ASC_NODE = 144.1257
ARG_OF_PERICENTER = 105.8101
MEAN_ANOMALY   = 254.9171

EPHEMERIS_TYPE = 0
CLASSIFICATION_TYPE = U
NORAD_CAT_ID   = 28932
ELEMENT_SET_NO = 999
REV_AT_EPOCH   = 8443
BSTAR          = .83427E-3
MEAN_MOTION_DOT = .16146E-3
MEAN_MOTION_DDOT = 0

CCSDS_OMM_VERS = 2.0
CREATION_DATE  = 
ORIGINATOR     = 

OBJECT_NAME    = RESURS-DK 1
OBJECT_ID      = 2006-021A
CENTER_NAME    = EARTH
REF_FRAME      = TEME
TIME_SYSTEM    = UTC
MEAN_ELEMENT_THEORY = SGP/SGP4

EPOCH          = 2026-01-02T12:49:23.629728
MEAN_MOTION    = 15.12303850
ECCENTRICITY   = .0006983
INCLINATION    = 69.9345
RA_OF_ASC_NODE = 48.0920
ARG_OF_PERICENTER = 241.8740
MEAN_ANOMALY   = 118.1720

EPHEMERIS_TYPE = 0
CLASSIFICATION_TYPE = U
NORAD_CAT_ID   = 29228
ELEMENT_SET_NO = 999
REV_AT_EPOCH   = 7752
BSTAR          = .30015E-3
MEAN_MOTION_DOT = .5107E-4
MEAN_MOTION_DDOT = 0

CCSDS_OMM_VERS = 2.0
CREATION_DATE  = 
ORIGINATOR     = 

OBJECT_NAME    = CZ-4B R/B
OBJECT_ID      = 2006-046C
CENTER_NAME    = EARTH
REF_FRAME      = TEME
TIME_SYSTEM    = UTC
MEAN_ELEMENT_THEORY = SGP/SGP4

EPOCH          = 2026-01-02T16:37:56.546112
MEAN_MOTION    = 15.16121748
ECCENTRICITY   = .0034916
INCLINATION    = 97.5705
RA_OF_ASC_NODE = 47.7747
ARG_OF_PERICENTER = 134.4698
MEAN_ANOMALY   = 225.9399

EPHEMERIS_TYPE = 0
CLASSIFICATION_TYPE = U
NORAD_CAT_ID   = 29507
ELEMENT_SET_NO = 999
REV_AT_EPOCH   = 5004
BSTAR          = .41978E-3
MEAN_MOTION_DOT = .815E-4
MEAN_MOTION_DDOT = 0

CCSDS_OMM_VERS = 2.0
CREATION_DATE  = 
ORIGINATOR     = 

OBJECT_NAME    = CZ-2C R/B
OBJECT_ID      = 2007-010B
CENTER_NAME    = EARTH
REF_FRAME      = TEME
TIME_SYSTEM    = UTC
MEAN_ELEMENT_THEORY = SGP/SGP4

EPOCH          = 2026-01-02T18:48:55.018368
MEAN_MOTION    = 14.20220226
ECCENTRICITY   = .0059803
INCLINATION    = 98.3974
RA_OF_ASC_NODE = 119.3759
ARG_OF_PERICENTER = 125.3426
MEAN_ANOMALY   = 235.3362

EPHEMERIS_TYPE = 0
CLASSIFICATION_TYPE = U
NORAD_CAT_ID   = 31114
ELEMENT_SET_NO = 999
REV_AT_EPOCH   = 97036
BSTAR          = .16534E-3
MEAN_MOTION_DOT = .319E-5
MEAN_MOTION_DDOT = 0

CCSDS_OMM_VERS = 2.0
CREATION_DATE  = 
ORIGINATOR     = 

OBJECT_NAME    = COSMO-SKYMED 1
OBJECT_ID      = 2007-023A
CENTER_NAME    = EARTH
REF_FRAME      = TEME
TIME_SYSTEM    = UTC
MEAN_ELEMENT_THEORY = SGP/SGP4

EPOCH          = 2026-01-02T19:01:20.487936
MEAN_MOTION    = 14.95953491
ECCENTRICITY   = .0001283
INCLINATION    = 97.8826
RA_OF_ASC_NODE = 193.3319
ARG_OF_PERICENTER = 88.7016
MEAN_ANOMALY   = 271.4352

EPHEMERIS_TYPE = 0
CLASSIFICATION_TYPE = U
NORAD_CAT_ID   = 31598
ELEMENT_SET_NO = 999
REV_AT_EPOCH   = 505
BSTAR          = .6359E-3
MEAN_MOTION_DOT = .7068E-4
MEAN_MOTION_DDOT = 0

CCSDS_OMM_VERS = 2.0
CREATION_DATE  = 
ORIGINATOR     = 

OBJECT_NAME    = COSMOS 2428
OBJECT_ID      = 2007-029A
CENTER_NAME    = EARTH
REF_FRAME      = TEME
TIME_SYSTEM    = UTC
MEAN_ELEMENT_THEORY = SGP/SGP4

EPOCH          = 2026-01-02T14:58:04.759680
MEAN_MOTION    = 14.12900868
ECCENTRICITY   = .0004883
INCLINATION    = 70.9379
RA_OF_ASC_NODE = 342.0313
ARG_OF_PERICENTER = 354.4683
MEAN_ANOMALY   = 5.6383

EPHEMERIS_TYPE = 0
CLASSIFICATION_TYPE = U
NORAD_CAT_ID   = 31792
ELEMENT_SET_NO = 999
REV_AT_EPOCH   = 95476
BSTAR          = .21453E-3
MEAN_MOTION_DOT = .352E-5
MEAN_MOTION_DDOT = 0

CCSDS_OMM_VERS = 2.0
CREATION_DATE  = 
ORIGINATOR     = 

OBJECT_NAME    = SL-16 R/B
OBJECT_ID      = 2007-029B
CENTER_NAME    = EARTH
REF_FRAME      = TEME
TIME_SYSTEM    = UTC
MEAN_ELEMENT_THEORY = SGP/SGP4

EPOCH          = 2026-01-02T14:55:02.852256
MEAN_MOTION    = 14.14824871
ECCENTRICITY   = .0002065
INCLINATION    = 70.9774
RA_OF_ASC_NODE = 311.2621
ARG_OF_PERICENTER = 270.6221
MEAN_ANOMALY   = 261.7812

EPHEMERIS_TYPE = 0
CLASSIFICATION_TYPE = U
NORAD_CAT_ID   = 31793
ELEMENT_SET_NO = 999
REV_AT_EPOCH   = 95602
BSTAR          = .12429E-3
MEAN_MOTION_DOT = .192E-5
MEAN_MOTION_DDOT = 0

CCSDS_OMM_VERS = 2.0
CREATION_DATE  = 
ORIGINATOR     = 

OBJECT_NAME    = KORONAS-FOTON
OBJECT_ID      = 2009-003A
CENTER_NAME    = EARTH
REF_FRAME      = TEME
TIME_SYSTEM    = UTC
MEAN_ELEMENT_THEORY = SGP/SGP4

EPOCH          = 2026-01-02T09:33:41.998464
MEAN_MOTION    = 15.41640185
ECCENTRICITY   = .0012623
INCLINATION    = 82.4307
RA_OF_ASC_NODE = 344.6913
ARG_OF_PERICENTER = 44.9478
MEAN_ANOMALY   = 315.2787

EPHEMERIS_TYPE = 0
CLASSIFICATION_TYPE = U
NORAD_CAT_ID   = 33504
ELEMENT_SET_NO = 999
REV_AT_EPOCH   = 93552
BSTAR          = .36223E-3
MEAN_MOTION_DOT = .1534E-3
MEAN_MOTION_DDOT = 0

CCSDS_OMM_VERS = 2.0
CREATION_DATE  = 
ORIGINATOR     = 

OBJECT_NAME    = CZ-2C R/B
OBJECT_ID      = 2011-030B
CENTER_NAME    = EARTH
REF_FRAME      = TEME
TIME_SYSTEM    = UTC
MEAN_ELEMENT_THEORY = SGP/SGP4

EPOCH          = 2026-01-02T19:24:59.880960
MEAN_MOTION    = 14.80978214
ECCENTRICITY   = .0052086
INCLINATION    = 97.8437
RA_OF_ASC_NODE = 321.4532
ARG_OF_PERICENTER = 203.3243
MEAN_ANOMALY   = 215.3048

EPHEMERIS_TYPE = 0
CLASSIFICATION_TYPE = U
NORAD_CAT_ID   = 37731
ELEMENT_SET_NO = 999
REV_AT_EPOCH   = 78034
BSTAR          = .3269E-3
MEAN_MOTION_DOT = .2536E-4
MEAN_MOTION_DDOT = 0

CCSDS_OMM_VERS = 2.0
CREATION_DATE  = 
ORIGINATOR     = 

OBJECT_NAME    = H-2A R/B
OBJECT_ID      = 2012-025E
CENTER_NAME    = EARTH
REF_FRAME      = TEME
TIME_SYSTEM    = UTC
MEAN_ELEMENT_THEORY = SGP/SGP4

EPOCH          = 2026-01-02T19:07:08.338656
MEAN_MOTION    = 14.94605124
ECCENTRICITY   = .0045082
INCLINATION    = 98.4627
RA_OF_ASC_NODE = 324.6551
ARG_OF_PERICENTER = 166.5494
MEAN_ANOMALY   = 193.6937

EPHEMERIS_TYPE = 0
CLASSIFICATION_TYPE = U
NORAD_CAT_ID   = 38341
ELEMENT_SET_NO = 999
REV_AT_EPOCH   = 73837
BSTAR          = .44935E-3
MEAN_MOTION_DOT = .4895E-4
MEAN_MOTION_DDOT = 0

CCSDS_OMM_VERS = 2.0
CREATION_DATE  = 
ORIGINATOR     = 

OBJECT_NAME    = SHIJIAN-16 (SJ-16)
OBJECT_ID      = 2013-057A
CENTER_NAME    = EARTH
REF_FRAME      = TEME
TIME_SYSTEM    = UTC
MEAN_ELEMENT_THEORY = SGP/SGP4

EPOCH          = 2026-01-02T18:59:19.440672
MEAN_MOTION    = 14.92086006
ECCENTRICITY   = .0017967
INCLINATION    = 74.9740
RA_OF_ASC_NODE = 309.8188
ARG_OF_PERICENTER = 271.3210
MEAN_ANOMALY   = 88.5920

EPHEMERIS_TYPE = 0
CLASSIFICATION_TYPE = U
NORAD_CAT_ID   = 39358
ELEMENT_SET_NO = 999
REV_AT_EPOCH   = 66167
BSTAR          = .64677E-3
MEAN_MOTION_DOT = .6568E-4
MEAN_MOTION_DDOT = 0

